{
"type": "FeatureCollection",
"name": "chapter_01_features",
"xy_coordinate_resolution": 1e-05,
"features": [
{ "type": "Feature", "properties": { "id": "CH01F040", "map_label": "Karako-Kagi", "category": "settlement", "rank": 1, "period_family": "yayoi", "evidence": "archaeological", "certainty": "secure", "date_label": "Middle and Late Yayoi", "scenes": "yayoi", "focus_scenes": "memory", "note": "Large settlement in the Nara basin", "lon": 135.806388, "lat": 34.567222 }, "geometry": { "type": "Point", "coordinates": [ 135.80639, 34.56722 ] } },
{ "type": "Feature", "properties": { "id": "CH01F056", "map_label": "Nara Basin", "category": "landscape", "rank": 1, "period_family": "yayoi", "evidence": "geographical", "certainty": "secure", "date_label": "third century AD", "scenes": "memory", "focus_scenes": "memory", "note": "Agricultural and route-rich basin where a new scale of centrality emerged", "lon": 135.83, "lat": 34.55 }, "geometry": { "type": "Point", "coordinates": [ 135.83, 34.55 ] } },
{ "type": "Feature", "properties": { "id": "CH01F055", "map_label": "Makimuku", "category": "political", "rank": 1, "period_family": "yayoi", "evidence": "archaeological", "certainty": "secure", "date_label": "late third century AD", "scenes": "wa;memory", "focus_scenes": "memory", "note": "Archaeological center near the Kofun threshold; not labeled as Yamatai", "lon": 135.8401, "lat": 34.54622 }, "geometry": { "type": "Point", "coordinates": [ 135.8401, 34.54622 ] } },
{ "type": "Feature", "properties": { "id": "CH01F044", "map_label": "Higashinara bronze workshop", "category": "production", "rank": 1, "period_family": "yayoi", "evidence": "archaeological", "certainty": "secure", "date_label": "Late Yayoi", "scenes": "bronze", "focus_scenes": "bronze", "note": "Nearly complete bell mold supports major foundries around Osaka and Nara", "lon": 135.569229, "lat": 34.803074 }, "geometry": { "type": "Point", "coordinates": [ 135.56923, 34.80307 ] } },
{ "type": "Feature", "properties": { "id": "CH01F045", "map_label": "Sakuragaoka cache", "category": "production", "rank": 1, "period_family": "yayoi", "evidence": "archaeological", "certainty": "secure", "date_label": "Late Yayoi", "scenes": "bronze", "focus_scenes": "bronze", "note": "Fourteen bells and seven halberds were deliberately concealed on a ridge", "lon": 135.2185, "lat": 34.73 }, "geometry": { "type": "Point", "coordinates": [ 135.2185, 34.73 ] } },
{ "type": "Feature", "properties": { "id": "CH01F041", "map_label": "Ikegami-Sone", "category": "settlement", "rank": 1, "period_family": "yayoi", "evidence": "archaeological", "certainty": "secure", "date_label": "Middle Yayoi", "scenes": "yayoi", "focus_scenes": "", "note": "Large Osaka Bay settlement and managed landscape", "lon": 135.427476, "lat": 34.502053 }, "geometry": { "type": "Point", "coordinates": [ 135.42748, 34.50205 ] } },
{ "type": "Feature", "properties": { "id": "CH01F016", "map_label": "Torihama", "category": "production", "rank": 1, "period_family": "jomon", "evidence": "archaeological", "certainty": "secure", "date_label": "Early Jomon", "scenes": "jomon-coasts;late-jomon", "focus_scenes": "jomon-coasts", "note": "Waterlogged remains preserve plant use woodworking basketry and lacquer", "lon": 135.898, "lat": 35.5576 }, "geometry": { "type": "Point", "coordinates": [ 135.898, 35.5576 ] } },
{ "type": "Feature", "properties": { "id": "CH01F042", "map_label": "Asahi", "category": "settlement", "rank": 2, "period_family": "yayoi", "evidence": "archaeological", "certainty": "secure", "date_label": "Yayoi", "scenes": "yayoi", "focus_scenes": "", "note": "Large defended settlement on the Nobi plain; marker placed at the protected Kaigarayama core within the extensive site", "lon": 136.854, "lat": 35.216 }, "geometry": { "type": "Point", "coordinates": [ 136.854, 35.216 ] } },
{ "type": "Feature", "properties": { "id": "CH01F021", "map_label": "Hiraide", "category": "settlement", "rank": 2, "period_family": "jomon", "evidence": "archaeological", "certainty": "secure", "date_label": "Middle Jomon", "scenes": "jomon-highlands", "focus_scenes": "", "note": "A burned house and figurine concentration provide an important ritual context", "lon": 137.946111, "lat": 36.101388 }, "geometry": { "type": "Point", "coordinates": [ 137.94611, 36.10139 ] } },
{ "type": "Feature", "properties": { "id": "CH01F019", "map_label": "Togariishi", "category": "settlement", "rank": 1, "period_family": "jomon", "evidence": "archaeological", "certainty": "secure", "date_label": "Middle Jomon", "scenes": "jomon-highlands", "focus_scenes": "jomon-highlands", "note": "Major highland settlement and pottery landscape", "lon": 138.233951, "lat": 36.0135 }, "geometry": { "type": "Point", "coordinates": [ 138.23395, 36.0135 ] } },
{ "type": "Feature", "properties": { "id": "CH01F023", "map_label": "Wada Pass obsidian source", "category": "production", "rank": 1, "period_family": "jomon", "evidence": "archaeological", "certainty": "approximate", "date_label": "Middle Jomon", "scenes": "jomon-highlands", "focus_scenes": "jomon-highlands", "note": "Source-area marker for the Wada-Suwa obsidian group; individual outcrops are dispersed through high terrain", "lon": 138.15, "lat": 36.13 }, "geometry": { "type": "Point", "coordinates": [ 138.15, 36.13 ] } },
{ "type": "Feature", "properties": { "id": "CH01F018", "map_label": "Yatsugatake Highlands", "category": "landscape", "rank": 1, "period_family": "jomon", "evidence": "geographical", "certainty": "secure", "date_label": "Middle Jomon", "scenes": "jomon-highlands", "focus_scenes": "jomon-highlands", "note": "Springs forests and access to obsidian supported dense highland settlement", "lon": 138.3, "lat": 35.95 }, "geometry": { "type": "Point", "coordinates": [ 138.3, 35.95 ] } },
{ "type": "Feature", "properties": { "id": "CH01F020", "map_label": "Idojiri", "category": "production", "rank": 1, "period_family": "jomon", "evidence": "archaeological", "certainty": "secure", "date_label": "Middle Jomon", "scenes": "jomon-highlands", "focus_scenes": "jomon-highlands", "note": "Processed plant remains and concentrated ritual objects illuminate highland life", "lon": 138.27871, "lat": 35.877692 }, "geometry": { "type": "Point", "coordinates": [ 138.27871, 35.87769 ] } },
{ "type": "Feature", "properties": { "id": "CH01F022", "map_label": "Shakado", "category": "production", "rank": 2, "period_family": "jomon", "evidence": "archaeological", "certainty": "secure", "date_label": "Middle Jomon", "scenes": "jomon-highlands", "focus_scenes": "", "note": "Numerous deliberately broken figurines were recovered here", "lon": 138.715788, "lat": 35.644812 }, "geometry": { "type": "Point", "coordinates": [ 138.71579, 35.64481 ] } },
{ "type": "Feature", "properties": { "id": "CH01F011", "map_label": "Kanto Plain", "category": "landscape", "rank": 1, "period_family": "paleolithic", "evidence": "geographical", "certainty": "secure", "date_label": "physical landscape", "scenes": "paleolithic", "focus_scenes": "jomon-coasts", "note": "Volcanic loam river terraces and springs preserve long occupation sequences", "lon": 139.4, "lat": 36.1 }, "geometry": { "type": "Point", "coordinates": [ 139.4, 36.1 ] } },
{ "type": "Feature", "properties": { "id": "CH01F014", "map_label": "Hanawadai", "category": "settlement", "rank": 1, "period_family": "jomon", "evidence": "archaeological", "certainty": "secure", "date_label": "Initial Jomon", "scenes": "jomon-coasts", "focus_scenes": "jomon-coasts", "note": "Small Kanto settlement with a limited number of simultaneously occupied houses", "lon": 140.05, "lat": 36.12 }, "geometry": { "type": "Point", "coordinates": [ 140.05, 36.12 ] } },
{ "type": "Feature", "properties": { "id": "CH01F024", "map_label": "Kainohana", "category": "burial", "rank": 1, "period_family": "jomon", "evidence": "archaeological", "certainty": "secure", "date_label": "Late Jomon", "scenes": "late-jomon", "focus_scenes": "late-jomon", "note": "Communal center with ritual objects and mortuary evidence", "lon": 139.94051, "lat": 35.813966 }, "geometry": { "type": "Point", "coordinates": [ 139.94051, 35.81397 ] } },
{ "type": "Feature", "properties": { "id": "CH01F017", "map_label": "Natsushima coast", "category": "landscape", "rank": 2, "period_family": "jomon", "evidence": "geographical", "certainty": "approximate", "date_label": "Early Holocene shoreline", "scenes": "jomon-coasts", "focus_scenes": "", "note": "The modern shore is only an orientation for a substantially changed bay", "lon": 139.7, "lat": 35.24 }, "geometry": { "type": "Point", "coordinates": [ 139.7, 35.24 ] } },
{ "type": "Feature", "properties": { "id": "CH01F012", "map_label": "Natsushima", "category": "settlement", "rank": 1, "period_family": "jomon", "evidence": "archaeological", "certainty": "secure", "date_label": "Initial Jomon", "scenes": "jomon-coasts", "focus_scenes": "jomon-coasts", "note": "Shell-mound sequence records changing shorelines and coastal foods", "lon": 139.648011, "lat": 35.323606 }, "geometry": { "type": "Point", "coordinates": [ 139.64801, 35.32361 ] } },
{ "type": "Feature", "properties": { "id": "CH01F039", "map_label": "Santonodai", "category": "settlement", "rank": 1, "period_family": "yayoi", "evidence": "archaeological", "certainty": "secure", "date_label": "Middle Yayoi onward", "scenes": "yayoi", "focus_scenes": "yayoi", "note": "Defended bluff settlement above Yokohama Bay", "lon": 139.610797, "lat": 35.420588 }, "geometry": { "type": "Point", "coordinates": [ 139.6108, 35.42059 ] } },
{ "type": "Feature", "properties": { "id": "CH01F013", "map_label": "Omori Shell Mounds", "category": "settlement", "rank": 2, "period_family": "jomon", "evidence": "archaeological", "certainty": "secure", "date_label": "Late Jomon", "scenes": "jomon-coasts", "focus_scenes": "", "note": "The excavation helped give the Jomon period its modern name", "lon": 139.729644, "lat": 35.593359 }, "geometry": { "type": "Point", "coordinates": [ 139.72964, 35.59336 ] } },
{ "type": "Feature", "properties": { "id": "CH01F015", "map_label": "Minamibori Shell Mound", "category": "settlement", "rank": 1, "period_family": "jomon", "evidence": "archaeological", "certainty": "approximate", "date_label": "Early Jomon", "scenes": "jomon-coasts", "focus_scenes": "jomon-coasts", "note": "Successive houses retained an arc around a communal center; marker is the documented Minamiyamada locality pending a published site centroid", "lon": 139.596659, "lat": 35.552619 }, "geometry": { "type": "Point", "coordinates": [ 139.59666, 35.55262 ] } },
{ "type": "Feature", "properties": { "id": "CH01F004", "map_label": "Kozushima obsidian source", "category": "production", "rank": 1, "period_family": "paleolithic", "evidence": "archaeological", "certainty": "secure", "date_label": "from about 38,000 years ago", "scenes": "islands;paleolithic", "focus_scenes": "paleolithic", "note": "Island-source obsidian demonstrates purposeful sea travel; the marker represents the source island, not a single quarry", "lon": 139.153, "lat": 34.215 }, "geometry": { "type": "Point", "coordinates": [ 139.153, 34.215 ] } },
{ "type": "Feature", "properties": { "id": "CH01F038", "map_label": "Toro", "category": "production", "rank": 1, "period_family": "yayoi", "evidence": "archaeological", "certainty": "secure", "date_label": "Late Yayoi", "scenes": "yayoi", "focus_scenes": "yayoi", "note": "Flood-preserved paddies waterworks houses and raised storehouses", "lon": 138.4089, "lat": 34.95603 }, "geometry": { "type": "Point", "coordinates": [ 138.4089, 34.95603 ] } },
{ "type": "Feature", "properties": { "id": "CH01F007B", "map_label": "Babadan A locality", "category": "settlement", "rank": 3, "period_family": "paleolithic", "evidence": "archaeological", "certainty": "disputed", "date_label": "discredited early Paleolithic claim", "scenes": "paleolithic", "focus_scenes": "", "note": "The claimed early assemblage is not usable academic evidence; locality is shown approximately within former Furukawa City because a reliable published centroid was not located", "lon": 140.95, "lat": 38.59 }, "geometry": { "type": "Point", "coordinates": [ 140.95, 38.59 ] } },
{ "type": "Feature", "properties": { "id": "CH01F007A", "map_label": "Zazaragi", "category": "settlement", "rank": 3, "period_family": "paleolithic", "evidence": "archaeological", "certainty": "disputed", "date_label": "discredited early Paleolithic claim", "scenes": "paleolithic", "focus_scenes": "", "note": "The claimed early layers were rejected after verification; the locality also contains valid later archaeology", "lon": 140.901175, "lat": 38.641577 }, "geometry": { "type": "Point", "coordinates": [ 140.90117, 38.64158 ] } },
{ "type": "Feature", "properties": { "id": "CH01F005", "map_label": "Iwajuku", "category": "settlement", "rank": 1, "period_family": "paleolithic", "evidence": "archaeological", "certainty": "secure", "date_label": "Late Paleolithic", "scenes": "paleolithic", "focus_scenes": "paleolithic", "note": "Discovery beneath Jomon layers transformed recognition of the preceramic past", "lon": 139.31, "lat": 36.4 }, "geometry": { "type": "Point", "coordinates": [ 139.31, 36.4 ] } },
{ "type": "Feature", "properties": { "id": "CH01F026", "map_label": "Kamegaoka", "category": "settlement", "rank": 1, "period_family": "jomon", "evidence": "archaeological", "certainty": "secure", "date_label": "Final Jomon", "scenes": "late-jomon", "focus_scenes": "late-jomon", "note": "Northern concentration known for technically assured ritual and domestic craft", "lon": 140.339464, "lat": 40.88436 }, "geometry": { "type": "Point", "coordinates": [ 140.33946, 40.88436 ] } },
{ "type": "Feature", "properties": { "id": "CH01F028", "map_label": "Northern Jomon concentration", "category": "landscape", "rank": 1, "period_family": "jomon", "evidence": "interpretive", "certainty": "approximate", "date_label": "Late and Final Jomon", "scenes": "late-jomon", "focus_scenes": "late-jomon", "note": "A regional concentration rather than a bounded political community", "lon": 140.75, "lat": 40.55 }, "geometry": { "type": "Point", "coordinates": [ 140.75, 40.55 ] } },
{ "type": "Feature", "properties": { "id": "CH01F025", "map_label": "Oyu Stone Circles", "category": "burial", "rank": 1, "period_family": "jomon", "evidence": "archaeological", "certainty": "secure", "date_label": "Late Jomon", "scenes": "late-jomon", "focus_scenes": "late-jomon", "note": "Large stone circles joined gathering burial exchange and ceremony", "lon": 140.803804, "lat": 40.27165 }, "geometry": { "type": "Point", "coordinates": [ 140.8038, 40.27165 ] } },
{ "type": "Feature", "properties": { "id": "CH01F027", "map_label": "Korekawa", "category": "production", "rank": 1, "period_family": "jomon", "evidence": "archaeological", "certainty": "secure", "date_label": "Final Jomon", "scenes": "late-jomon", "focus_scenes": "late-jomon", "note": "Wet deposits preserve lacquer wood and sophisticated household objects", "lon": 141.488954, "lat": 40.47571 }, "geometry": { "type": "Point", "coordinates": [ 141.48895, 40.47571 ] } },
{ "type": "Feature", "properties": { "id": "CH01F001", "map_label": "Sakhalin passage", "category": "gateway", "rank": 1, "period_family": "paleolithic", "evidence": "interpretive", "certainty": "approximate", "date_label": "Pleistocene", "scenes": "islands", "focus_scenes": "islands", "note": "Broad northern approach rather than a single entry point", "lon": 142.45, "lat": 45.55 }, "geometry": { "type": "Point", "coordinates": [ 142.45, 45.55 ] } },
{ "type": "Feature", "properties": { "id": "CH01F006", "map_label": "Lake Nojiri", "category": "settlement", "rank": 2, "period_family": "paleolithic", "evidence": "archaeological", "certainty": "secure", "date_label": "Late Pleistocene", "scenes": "paleolithic", "focus_scenes": "paleolithic", "note": "Faunal and environmental evidence from a changing inland landscape", "lon": 138.21, "lat": 36.82 }, "geometry": { "type": "Point", "coordinates": [ 138.21, 36.82 ] } },
{ "type": "Feature", "properties": { "id": "CH01F049", "map_label": "Lelang Commandery", "category": "political", "rank": 3, "period_family": "record", "evidence": "external_record", "certainty": "approximate", "date_label": "108 BC to AD 313", "scenes": "wa", "focus_scenes": "", "note": "Continental administrative frame for early reports and exchange; marker represents the Pyongyang-area administrative center", "lon": 125.75, "lat": 39.0 }, "geometry": { "type": "Point", "coordinates": [ 125.75, 39.0 ] } },
{ "type": "Feature", "properties": { "id": "CH01F050", "map_label": "Daifang Commandery", "category": "political", "rank": 1, "period_family": "record", "evidence": "external_record", "certainty": "approximate", "date_label": "third century AD", "scenes": "wa", "focus_scenes": "wa", "note": "Starting region named in the Wei itinerary to Wa; placed near Hwangju while the precise commandery seat remains debated", "lon": 125.75, "lat": 38.67 }, "geometry": { "type": "Point", "coordinates": [ 125.75, 38.67 ] } },
{ "type": "Feature", "properties": { "id": "CH01F009", "map_label": "Fukui Cave", "category": "production", "rank": 1, "period_family": "paleolithic", "evidence": "archaeological", "certainty": "secure", "date_label": "terminal Pleistocene", "scenes": "paleolithic", "focus_scenes": "paleolithic", "note": "Early pottery and stone-tool sequence in northwestern Kyushu", "lon": 129.696944, "lat": 33.2925 }, "geometry": { "type": "Point", "coordinates": [ 129.69694, 33.2925 ] } },
{ "type": "Feature", "properties": { "id": "CH01F033", "map_label": "Harunotsuji", "category": "settlement", "rank": 2, "period_family": "yayoi", "evidence": "archaeological", "certainty": "secure", "date_label": "Yayoi", "scenes": "rice;wa", "focus_scenes": "", "note": "Major Iki settlement within the maritime field", "lon": 129.747167, "lat": 33.759639 }, "geometry": { "type": "Point", "coordinates": [ 129.74717, 33.75964 ] } },
{ "type": "Feature", "properties": { "id": "CH01F030", "map_label": "Iki", "category": "gateway", "rank": 1, "period_family": "yayoi", "evidence": "archaeological", "certainty": "secure", "date_label": "Final Jomon to Yayoi", "scenes": "rice;wa", "focus_scenes": "rice;wa", "note": "Maritime stage between the peninsula and northern Kyushu", "lon": 129.69, "lat": 33.79 }, "geometry": { "type": "Point", "coordinates": [ 129.69, 33.79 ] } },
{ "type": "Feature", "properties": { "id": "CH01F002", "map_label": "Korean Strait gateway", "category": "gateway", "rank": 1, "period_family": "paleolithic", "evidence": "interpretive", "certainty": "approximate", "date_label": "Pleistocene", "scenes": "islands;rice", "focus_scenes": "islands;rice", "note": "Changing western approach that always required attention to water", "lon": 129.2, "lat": 34.65 }, "geometry": { "type": "Point", "coordinates": [ 129.2, 34.65 ] } },
{ "type": "Feature", "properties": { "id": "CH01F029", "map_label": "Tsushima", "category": "gateway", "rank": 1, "period_family": "yayoi", "evidence": "archaeological", "certainty": "secure", "date_label": "Final Jomon to Yayoi", "scenes": "rice;wa", "focus_scenes": "rice;wa", "note": "Stepping-stone in sustained strait crossings", "lon": 129.33, "lat": 34.42 }, "geometry": { "type": "Point", "coordinates": [ 129.33, 34.42 ] } },
{ "type": "Feature", "properties": { "id": "CH01F035", "map_label": "Doigahama", "category": "burial", "rank": 1, "period_family": "yayoi", "evidence": "archaeological", "certainty": "secure", "date_label": "Yayoi", "scenes": "yayoi", "focus_scenes": "yayoi", "note": "Cemetery reveals differentiated treatment ornaments and bodily affiliation", "lon": 130.888611, "lat": 34.290555 }, "geometry": { "type": "Point", "coordinates": [ 130.88861, 34.29055 ] } },
{ "type": "Feature", "properties": { "id": "CH01F057", "map_label": "Izumo", "category": "political", "rank": 1, "period_family": "yayoi", "evidence": "archaeological", "certainty": "approximate", "date_label": "Late Yayoi", "scenes": "memory", "focus_scenes": "memory", "note": "Regional center whose material strength must remain distinct from later myth", "lon": 132.75, "lat": 35.37 }, "geometry": { "type": "Point", "coordinates": [ 132.75, 35.37 ] } },
{ "type": "Feature", "properties": { "id": "CH01F047", "map_label": "Kamo Iwakura cache", "category": "production", "rank": 1, "period_family": "yayoi", "evidence": "archaeological", "certainty": "secure", "date_label": "Late Yayoi", "scenes": "bronze;memory", "focus_scenes": "bronze", "note": "Large bronze-bell deposit within the Izumo landscape", "lon": 132.882837, "lat": 35.359202 }, "geometry": { "type": "Point", "coordinates": [ 132.88284, 35.3592 ] } },
{ "type": "Feature", "properties": { "id": "CH01F046", "map_label": "Kojindani cache", "category": "production", "rank": 1, "period_family": "yayoi", "evidence": "archaeological", "certainty": "secure", "date_label": "Late Yayoi", "scenes": "bronze;memory", "focus_scenes": "bronze;memory", "note": "Exceptional ordered deposit of swords spearheads and bells in Izumo", "lon": 132.852694, "lat": 35.376639 }, "geometry": { "type": "Point", "coordinates": [ 132.85269, 35.37664 ] } },
{ "type": "Feature", "properties": { "id": "CH01F048", "map_label": "Kibi", "category": "landscape", "rank": 1, "period_family": "yayoi", "evidence": "interpretive", "certainty": "approximate", "date_label": "Yayoi", "scenes": "bronze;memory", "focus_scenes": "bronze;memory", "note": "Strategic zone where western weapon and eastern bell distributions overlap", "lon": 133.8, "lat": 34.63 }, "geometry": { "type": "Point", "coordinates": [ 133.8, 34.63 ] } },
{ "type": "Feature", "properties": { "id": "CH01F059", "map_label": "Inland Sea networks", "category": "landscape", "rank": 1, "period_family": "yayoi", "evidence": "interpretive", "certainty": "approximate", "date_label": "Late Yayoi", "scenes": "memory", "focus_scenes": "memory", "note": "Maritime corridor linking several regional centers", "lon": 133.6, "lat": 34.2 }, "geometry": { "type": "Point", "coordinates": [ 133.6, 34.2 ] } },
{ "type": "Feature", "properties": { "id": "CH01F008", "map_label": "Kamikuroiwa", "category": "settlement", "rank": 1, "period_family": "paleolithic", "evidence": "archaeological", "certainty": "secure", "date_label": "terminal Pleistocene", "scenes": "paleolithic", "focus_scenes": "paleolithic", "note": "Rock-shelter sequence links changing game to projectiles and pottery", "lon": 132.92, "lat": 33.65 }, "geometry": { "type": "Point", "coordinates": [ 132.92, 33.65 ] } },
{ "type": "Feature", "properties": { "id": "CH01F043", "map_label": "Yasunagata", "category": "production", "rank": 1, "period_family": "yayoi", "evidence": "archaeological", "certainty": "secure", "date_label": "Yayoi", "scenes": "bronze", "focus_scenes": "bronze", "note": "Bell and weapon molds slag and refined tin reveal local casting", "lon": 130.514538, "lat": 33.398586 }, "geometry": { "type": "Point", "coordinates": [ 130.51454, 33.39859 ] } },
{ "type": "Feature", "properties": { "id": "CH01F054", "map_label": "Fumi", "category": "political", "rank": 2, "period_family": "record", "evidence": "external_record", "certainty": "approximate", "date_label": "third century AD", "scenes": "wa", "focus_scenes": "wa", "note": "Last broadly placeable stage before disputed directions and travel times", "lon": 130.51, "lat": 33.57 }, "geometry": { "type": "Point", "coordinates": [ 130.51, 33.57 ] } },
{ "type": "Feature", "properties": { "id": "CH01F032", "map_label": "Itazuke", "category": "settlement", "rank": 1, "period_family": "yayoi", "evidence": "archaeological", "certainty": "secure", "date_label": "Final Jomon and Early Yayoi", "scenes": "rice;yayoi", "focus_scenes": "rice", "note": "Fields channels tools storage and burial meet at this threshold site", "lon": 130.4521, "lat": 33.565516 }, "geometry": { "type": "Point", "coordinates": [ 130.4521, 33.56552 ] } },
{ "type": "Feature", "properties": { "id": "CH01F037", "map_label": "Sugu-Okamoto", "category": "burial", "rank": 1, "period_family": "yayoi", "evidence": "archaeological", "certainty": "secure", "date_label": "Middle Yayoi", "scenes": "yayoi", "focus_scenes": "yayoi", "note": "Elite burial and exchange center near the Fukuoka plain", "lon": 130.448611, "lat": 33.540277 }, "geometry": { "type": "Point", "coordinates": [ 130.44861, 33.54028 ] } },
{ "type": "Feature", "properties": { "id": "CH01F053", "map_label": "Na", "category": "political", "rank": 1, "period_family": "record", "evidence": "external_record", "certainty": "approximate", "date_label": "first to third centuries AD", "scenes": "wa", "focus_scenes": "wa", "note": "Polity connected with recorded embassies and the northern Kyushu route", "lon": 130.43, "lat": 33.56 }, "geometry": { "type": "Point", "coordinates": [ 130.43, 33.56 ] } },
{ "type": "Feature", "properties": { "id": "CH01F058", "map_label": "Northern Kyushu", "category": "political", "rank": 1, "period_family": "yayoi", "evidence": "archaeological", "certainty": "approximate", "date_label": "Late Yayoi", "scenes": "memory", "focus_scenes": "memory", "note": "Maritime and agricultural center with dense continental connections", "lon": 130.4, "lat": 33.55 }, "geometry": { "type": "Point", "coordinates": [ 130.4, 33.55 ] } },
{ "type": "Feature", "properties": { "id": "CH01F036", "map_label": "Mikumo-Ihara", "category": "burial", "rank": 1, "period_family": "yayoi", "evidence": "archaeological", "certainty": "secure", "date_label": "Middle Yayoi", "scenes": "yayoi", "focus_scenes": "yayoi", "note": "Elite northern Kyushu burial concentration with continental prestige goods", "lon": 130.2402, "lat": 33.5338 }, "geometry": { "type": "Point", "coordinates": [ 130.2402, 33.5338 ] } },
{ "type": "Feature", "properties": { "id": "CH01F052", "map_label": "Ito", "category": "political", "rank": 1, "period_family": "record", "evidence": "external_record", "certainty": "approximate", "date_label": "third century AD", "scenes": "wa", "focus_scenes": "wa", "note": "Comparatively secure northern Kyushu stage in the itinerary", "lon": 130.21, "lat": 33.56 }, "geometry": { "type": "Point", "coordinates": [ 130.21, 33.56 ] } },
{ "type": "Feature", "properties": { "id": "CH01F051", "map_label": "Matsuura", "category": "political", "rank": 1, "period_family": "record", "evidence": "external_record", "certainty": "approximate", "date_label": "third century AD", "scenes": "wa", "focus_scenes": "wa", "note": "Comparatively secure northern Kyushu stage in the itinerary", "lon": 129.98, "lat": 33.45 }, "geometry": { "type": "Point", "coordinates": [ 129.98, 33.45 ] } },
{ "type": "Feature", "properties": { "id": "CH01F031", "map_label": "Nabatake", "category": "settlement", "rank": 1, "period_family": "yayoi", "evidence": "archaeological", "certainty": "secure", "date_label": "early first millennium BC", "scenes": "rice", "focus_scenes": "rice", "note": "Early wet-rice field evidence near Karatsu", "lon": 129.957703, "lat": 33.448655 }, "geometry": { "type": "Point", "coordinates": [ 129.9577, 33.44866 ] } },
{ "type": "Feature", "properties": { "id": "CH01F034", "map_label": "Yoshinogari", "category": "settlement", "rank": 1, "period_family": "yayoi", "evidence": "archaeological", "certainty": "secure", "date_label": "Middle and Late Yayoi", "scenes": "rice;yayoi", "focus_scenes": "yayoi", "note": "Ditches buildings storage and burials accumulated through several phases", "lon": 130.3843, "lat": 33.32541 }, "geometry": { "type": "Point", "coordinates": [ 130.3843, 33.32541 ] } },
{ "type": "Feature", "properties": { "id": "CH01F010", "map_label": "Uenohara", "category": "settlement", "rank": 2, "period_family": "paleolithic", "evidence": "archaeological", "certainty": "secure", "date_label": "Incipient and Initial Jomon", "scenes": "paleolithic", "focus_scenes": "", "note": "Early southern settlement and ceramic evidence", "lon": 130.72, "lat": 31.75 }, "geometry": { "type": "Point", "coordinates": [ 130.72, 31.75 ] } },
{ "type": "Feature", "properties": { "id": "CH01F003", "map_label": "Ryukyu approaches", "category": "gateway", "rank": 2, "period_family": "paleolithic", "evidence": "interpretive", "certainty": "approximate", "date_label": "Pleistocene", "scenes": "islands", "focus_scenes": "islands", "note": "Deep southern passages imply deliberate open-sea movement", "lon": 128.25, "lat": 27.15 }, "geometry": { "type": "Point", "coordinates": [ 128.25, 27.15 ] } }
]
}
