{
"type": "FeatureCollection",
"name": "chapter_01_routes",
"xy_coordinate_resolution": 1e-05,
"features": [
{ "type": "Feature", "properties": { "id": "CH01R012", "map_label": "Traditional Jimmu itinerary", "route_family": "traditional", "evidence": "retrospective_tradition", "certainty": "traditional", "rank": 1, "scenes": "memory", "focus_scenes": "memory", "note": "Later court tradition through Hyuga, Usa, Aki, Kibi, Naniwa, Kii, Kumano, Yoshino and Yamato; not a securely dated campaign route" }, "geometry": { "type": "LineString", "coordinates": [ [ 131.1, 31.8 ], [ 131.32, 33.53 ], [ 132.45, 34.35 ], [ 133.78, 34.63 ], [ 135.5, 34.68 ], [ 135.65, 34.68 ], [ 135.2, 33.45 ], [ 135.98, 33.62 ], [ 135.85, 34.2 ], [ 135.83, 34.55 ] ] } },
{ "type": "Feature", "properties": { "id": "CH01R007B", "map_label": "Western Honshu rice adoption", "route_family": "diffusion", "evidence": "archaeological", "certainty": "approximate", "rank": 1, "scenes": "rice", "focus_scenes": "rice", "note": "Schematic sequence through coastal plains with prolonged coexistence and regional variation" }, "geometry": { "type": "LineString", "coordinates": [ [ 130.452, 33.566 ], [ 132.2, 34.2 ], [ 133.6, 34.2 ], [ 135.43, 34.5 ], [ 135.81, 34.57 ] ] } },
{ "type": "Feature", "properties": { "id": "CH01R011", "map_label": "Disputed continuation toward Kinki hypotheses", "route_family": "record", "evidence": "external_record", "certainty": "disputed", "rank": 2, "scenes": "wa", "focus_scenes": "wa", "note": "One family of interpretations through the Inland Sea; distances, directions and destination remain contested" }, "geometry": { "type": "LineString", "coordinates": [ [ 130.51, 33.57 ], [ 131.57, 34.05 ], [ 133.6, 34.2 ], [ 135.2, 34.5 ], [ 135.5, 34.68 ], [ 135.84, 34.55 ] ] } },
{ "type": "Feature", "properties": { "id": "CH01R007C", "map_label": "Eastern Honshu rice adoption", "route_family": "diffusion", "evidence": "archaeological", "certainty": "approximate", "rank": 2, "scenes": "rice", "focus_scenes": "rice", "note": "Later and uneven adoption toward Tokai and eastern Honshu; not a uniform wavefront" }, "geometry": { "type": "LineString", "coordinates": [ [ 135.81, 34.57 ], [ 136.85, 35.22 ], [ 138.409, 34.956 ] ] } },
{ "type": "Feature", "properties": { "id": "CH01R006A", "map_label": "Central Jomon exchange networks", "route_family": "exchange", "evidence": "interpretive", "certainty": "approximate", "rank": 2, "scenes": "jomon-coasts;late-jomon", "focus_scenes": "", "note": "Schematic links among the Japan Sea coast, Lake Biwa approaches and central highlands; not a documented single itinerary" }, "geometry": { "type": "LineString", "coordinates": [ [ 135.898, 35.558 ], [ 136.2, 35.45 ], [ 136.05, 35.2 ], [ 137.2, 35.5 ], [ 138.15, 36.13 ] ] } },
{ "type": "Feature", "properties": { "id": "CH01R006B", "map_label": "Kanto bay and river networks", "route_family": "exchange", "evidence": "interpretive", "certainty": "approximate", "rank": 2, "scenes": "jomon-coasts;late-jomon", "focus_scenes": "", "note": "Schematic coastal and estuarine connections around changing Tokyo Bay shorelines" }, "geometry": { "type": "LineString", "coordinates": [ [ 139.648, 35.324 ], [ 139.73, 35.593 ], [ 139.85, 35.68 ], [ 139.941, 35.814 ] ] } },
{ "type": "Feature", "properties": { "id": "CH01R004", "map_label": "Kozushima obsidian crossing", "route_family": "exchange", "evidence": "archaeological", "certainty": "approximate", "rank": 1, "scenes": "paleolithic", "focus_scenes": "paleolithic", "note": "Repeated transport of island obsidian required sea travel; the line is a schematic procurement corridor and not a known sailing track" }, "geometry": { "type": "LineString", "coordinates": [ [ 139.153, 34.215 ], [ 139.03, 34.47 ], [ 138.96, 34.68 ], [ 139.2, 35.05 ], [ 139.65, 35.4 ] ] } },
{ "type": "Feature", "properties": { "id": "CH01R005", "map_label": "Highland obsidian exchange", "route_family": "exchange", "evidence": "archaeological", "certainty": "approximate", "rank": 1, "scenes": "jomon-highlands", "focus_scenes": "jomon-highlands", "note": "Generalized procurement and exchange corridor from the Wada-Suwa source group through the highlands and Kofu basin toward Kanto" }, "geometry": { "type": "LineString", "coordinates": [ [ 138.15, 36.13 ], [ 138.3, 35.95 ], [ 138.7, 35.66 ], [ 139.05, 35.75 ], [ 139.4, 36.1 ] ] } },
{ "type": "Feature", "properties": { "id": "CH01R006C", "map_label": "Northern Jomon coastal networks", "route_family": "exchange", "evidence": "interpretive", "certainty": "approximate", "rank": 2, "scenes": "late-jomon", "focus_scenes": "", "note": "Schematic northern exchange corridor linking major Late and Final Jomon concentrations" }, "geometry": { "type": "LineString", "coordinates": [ [ 140.804, 40.272 ], [ 140.339, 40.884 ], [ 141.489, 40.476 ] ] } },
{ "type": "Feature", "properties": { "id": "CH01R001", "map_label": "Northern approach", "route_family": "movement", "evidence": "interpretive", "certainty": "approximate", "rank": 1, "scenes": "islands", "focus_scenes": "islands", "note": "Broad Pleistocene corridor through Sakhalin and Hokkaido" }, "geometry": { "type": "LineString", "coordinates": [ [ 142.7, 47.0 ], [ 142.45, 45.55 ], [ 141.3, 43.1 ] ] } },
{ "type": "Feature", "properties": { "id": "CH01R009", "map_label": "Daifang to northern Kyushu", "route_family": "record", "evidence": "external_record", "certainty": "approximate", "rank": 1, "scenes": "wa", "focus_scenes": "wa", "note": "The named sequence from Daifang through Guya, Tsushima, Iki, Matsuura, Ito, Na and Fumi is firmer than the drawn connecting track; Daifang's exact seat also remains debated" }, "geometry": { "type": "LineString", "coordinates": [ [ 125.75, 38.67 ], [ 126.5, 37.5 ], [ 126.7, 35.3 ], [ 128.9, 35.2 ], [ 129.33, 34.42 ], [ 129.69, 33.79 ], [ 129.98, 33.45 ], [ 130.21, 33.56 ], [ 130.43, 33.56 ], [ 130.51, 33.57 ] ] } },
{ "type": "Feature", "properties": { "id": "CH01R007A", "map_label": "Northern Kyushu early rice adoption", "route_family": "diffusion", "evidence": "archaeological", "certainty": "approximate", "rank": 1, "scenes": "rice", "focus_scenes": "rice", "note": "Schematic local network among early field sites; it does not represent a single migration or advancing front" }, "geometry": { "type": "LineString", "coordinates": [ [ 129.958, 33.449 ], [ 130.21, 33.56 ], [ 130.452, 33.566 ], [ 130.65, 33.58 ] ] } },
{ "type": "Feature", "properties": { "id": "CH01R002", "map_label": "Western approach", "route_family": "movement", "evidence": "interpretive", "certainty": "approximate", "rank": 1, "scenes": "islands", "focus_scenes": "islands", "note": "Changing Pleistocene western approach from the southern Korean Peninsula; the straits remained water crossings" }, "geometry": { "type": "LineString", "coordinates": [ [ 128.8, 35.2 ], [ 129.15, 34.7 ], [ 129.33, 34.42 ], [ 129.69, 33.79 ], [ 130.4, 33.58 ] ] } },
{ "type": "Feature", "properties": { "id": "CH01R008", "map_label": "Maritime metal supply", "route_family": "exchange", "evidence": "archaeological", "certainty": "approximate", "rank": 1, "scenes": "bronze", "focus_scenes": "bronze", "note": "Ore, ingots, objects and scrap moved through southern peninsular and island networks before local recasting; exact voyages are unknown" }, "geometry": { "type": "LineString", "coordinates": [ [ 128.9, 35.2 ], [ 129.33, 34.42 ], [ 129.69, 33.79 ], [ 130.45, 33.57 ], [ 133.6, 34.2 ], [ 135.55, 34.6 ] ] } },
{ "type": "Feature", "properties": { "id": "CH01R010", "map_label": "Disputed continuation toward Kyushu hypotheses", "route_family": "record", "evidence": "external_record", "certainty": "disputed", "rank": 2, "scenes": "wa", "focus_scenes": "wa", "note": "One family of interpretations; the map does not locate Yamatai" }, "geometry": { "type": "LineString", "coordinates": [ [ 130.51, 33.57 ], [ 131.15, 33.05 ], [ 131.65, 32.55 ] ] } },
{ "type": "Feature", "properties": { "id": "CH01R003", "map_label": "Southern open-sea approaches", "route_family": "movement", "evidence": "interpretive", "certainty": "approximate", "rank": 2, "scenes": "islands", "focus_scenes": "islands", "note": "Generalized island corridor whose passages remained deep" }, "geometry": { "type": "LineString", "coordinates": [ [ 123.0, 24.5 ], [ 124.2, 24.9 ], [ 125.3, 26.2 ], [ 127.7, 26.2 ], [ 129.5, 28.1 ], [ 130.7, 31.5 ] ] } }
]
}
