{
"type": "FeatureCollection",
"name": "chapter_01_regions",
"xy_coordinate_resolution": 1e-05,
"features": [
{ "type": "Feature", "properties": { "id": "CH01Z001", "map_label": "Kanto and Chubu concentration", "period_family": "jomon", "evidence": "interpretive", "certainty": "approximate", "rank": 1, "scenes": "jomon-coasts;jomon-highlands", "focus_scenes": "jomon-highlands", "note": "Broad long-lived archaeological concentration rather than a cultural boundary" }, "geometry": { "type": "Polygon", "coordinates": [ [ [ 137.2, 34.7 ], [ 139.8, 34.7 ], [ 141.1, 36.0 ], [ 140.2, 37.2 ], [ 137.5, 37.3 ], [ 136.6, 36.1 ], [ 137.2, 34.7 ] ] ] } },
{ "type": "Feature", "properties": { "id": "CH01Z002", "map_label": "Northern Late Jomon concentration", "period_family": "jomon", "evidence": "interpretive", "certainty": "approximate", "rank": 1, "scenes": "late-jomon", "focus_scenes": "late-jomon", "note": "Broad concentration spanning northern Honshu and southern Hokkaido" }, "geometry": { "type": "Polygon", "coordinates": [ [ [ 139.2, 38.7 ], [ 142.7, 38.5 ], [ 143.3, 42.5 ], [ 141.7, 43.4 ], [ 139.0, 41.7 ], [ 139.2, 38.7 ] ] ] } },
{ "type": "Feature", "properties": { "id": "CH01Z010", "map_label": "Izumo regional center", "period_family": "yayoi", "evidence": "interpretive", "certainty": "approximate", "rank": 1, "scenes": "memory", "focus_scenes": "memory", "note": "Materially powerful western center later recast in court tradition" }, "geometry": { "type": "Polygon", "coordinates": [ [ [ 132.2, 34.8 ], [ 133.4, 34.75 ], [ 133.5, 35.8 ], [ 132.2, 35.85 ], [ 132.2, 34.8 ] ] ] } },
{ "type": "Feature", "properties": { "id": "CH01Z004", "map_label": "Setouchi and Kinki adoption corridor", "period_family": "yayoi", "evidence": "interpretive", "certainty": "approximate", "rank": 2, "scenes": "rice;yayoi", "focus_scenes": "rice", "note": "Generalized corridor of uneven agricultural adoption" }, "geometry": { "type": "Polygon", "coordinates": [ [ [ 130.7, 33.2 ], [ 133.8, 33.45 ], [ 136.6, 34.1 ], [ 137.2, 35.2 ], [ 135.2, 35.4 ], [ 132.7, 34.8 ], [ 130.7, 33.2 ] ] ] } },
{ "type": "Feature", "properties": { "id": "CH01Z011", "map_label": "Kibi regional center", "period_family": "yayoi", "evidence": "interpretive", "certainty": "approximate", "rank": 1, "scenes": "memory", "focus_scenes": "memory", "note": "Strategic Inland Sea center between western and Kinki networks" }, "geometry": { "type": "Polygon", "coordinates": [ [ [ 133.1, 34.1 ], [ 134.4, 34.0 ], [ 134.5, 35.0 ], [ 133.2, 35.1 ], [ 133.1, 34.1 ] ] ] } },
{ "type": "Feature", "properties": { "id": "CH01Z012", "map_label": "Kinki regional center", "period_family": "yayoi", "evidence": "interpretive", "certainty": "approximate", "rank": 1, "scenes": "memory", "focus_scenes": "memory", "note": "Basin and maritime network where a new scale of centrality emerged" }, "geometry": { "type": "Polygon", "coordinates": [ [ [ 134.8, 33.9 ], [ 136.5, 33.9 ], [ 136.7, 35.4 ], [ 134.9, 35.5 ], [ 134.8, 33.9 ] ] ] } },
{ "type": "Feature", "properties": { "id": "CH01Z008", "map_label": "Kinki candidate field", "period_family": "record", "evidence": "external_record", "certainty": "disputed", "rank": 2, "scenes": "wa", "focus_scenes": "wa", "note": "Generalized field used by major Yamatai hypotheses; not an asserted location" }, "geometry": { "type": "Polygon", "coordinates": [ [ [ 134.7, 33.9 ], [ 136.7, 33.9 ], [ 136.9, 35.4 ], [ 134.8, 35.5 ], [ 134.7, 33.9 ] ] ] } },
{ "type": "Feature", "properties": { "id": "CH01Z006", "map_label": "Bronze bell concentration", "period_family": "yayoi", "evidence": "interpretive", "certainty": "approximate", "rank": 1, "scenes": "bronze", "focus_scenes": "bronze", "note": "Eastern Inland Sea Kinki and southern Tokai concentration with overlap at Kibi" }, "geometry": { "type": "Polygon", "coordinates": [ [ [ 133.0, 33.7 ], [ 135.0, 33.3 ], [ 138.7, 34.2 ], [ 139.1, 35.5 ], [ 136.6, 36.0 ], [ 134.1, 35.2 ], [ 133.0, 33.7 ] ] ] } },
{ "type": "Feature", "properties": { "id": "CH01Z005", "map_label": "Bronze weapon concentration", "period_family": "yayoi", "evidence": "interpretive", "certainty": "approximate", "rank": 1, "scenes": "bronze", "focus_scenes": "bronze", "note": "Northern Kyushu and western Inland Sea concentration that changes through time" }, "geometry": { "type": "Polygon", "coordinates": [ [ [ 129.2, 32.6 ], [ 131.6, 32.5 ], [ 134.2, 33.6 ], [ 134.6, 34.6 ], [ 132.2, 35.1 ], [ 129.4, 34.2 ], [ 129.2, 32.6 ] ] ] } },
{ "type": "Feature", "properties": { "id": "CH01Z009", "map_label": "Northern Kyushu regional center", "period_family": "yayoi", "evidence": "interpretive", "certainty": "approximate", "rank": 1, "scenes": "memory", "focus_scenes": "memory", "note": "Agricultural maritime and diplomatic center among several late Yayoi fields" }, "geometry": { "type": "Polygon", "coordinates": [ [ [ 129.4, 32.8 ], [ 130.9, 32.7 ], [ 131.1, 33.8 ], [ 130.3, 34.2 ], [ 129.4, 33.7 ], [ 129.4, 32.8 ] ] ] } },
{ "type": "Feature", "properties": { "id": "CH01Z003", "map_label": "Northern Kyushu early rice core", "period_family": "yayoi", "evidence": "interpretive", "certainty": "approximate", "rank": 1, "scenes": "rice;yayoi", "focus_scenes": "rice", "note": "Archaeological concentration with regional variation in date and practice" }, "geometry": { "type": "Polygon", "coordinates": [ [ [ 129.4, 32.8 ], [ 130.9, 32.7 ], [ 131.2, 33.8 ], [ 130.4, 34.25 ], [ 129.45, 33.75 ], [ 129.4, 32.8 ] ] ] } },
{ "type": "Feature", "properties": { "id": "CH01Z007", "map_label": "Kyushu candidate field", "period_family": "record", "evidence": "external_record", "certainty": "disputed", "rank": 2, "scenes": "wa", "focus_scenes": "wa", "note": "Generalized field used by major Yamatai hypotheses; not an asserted location" }, "geometry": { "type": "Polygon", "coordinates": [ [ [ 129.3, 31.8 ], [ 132.0, 31.8 ], [ 132.2, 34.1 ], [ 130.0, 34.3 ], [ 129.3, 31.8 ] ] ] } }
]
}
